NORAD_CAT_ID,OBJECT_NAME,OBJECT_TYPE,EPOCH,MEAN_MOTION,ECCENTRICITY,INCLINATION,RA_OF_ASC_NODE,ARG_OF_PERICENTER,MEAN_ANOMALY,BSTAR,MEAN_MOTION_DOT,MEAN_MOTION_DDOT,TLE_LINE0,TLE_LINE1,TLE_LINE2,SEMIMAJOR_AXIS,PERIOD,APOGEE,PERIGEE,DECAYED
56452.0,STARLINK-5986,PAYLOAD,2024-03-20 13:25:17,14.98321598,0.0003312,69.9997,157.789,272.4156,87.6624,-5.6794e-05,-7.7e-06,0.0,0 STARLINK-5986,1 56452U 23064E   24080.55923536 -.00000770  00000-0 -56794-4 0  9990,2 56452  69.9997 157.7890 0003312 272.4156  87.6624 14.98321598 47527,6950.219,96.108,574.386,569.782,0.0
56452.0,STARLINK-5986,PAYLOAD,2024-03-20 15:01:25,14.98322311,0.0003199,69.9999,157.6209,269.5313,90.5479,-4.7349e-05,-6.58e-06,0.0,0 STARLINK-5986,1 56452U 23064E   24080.62599478 -.00000658  00000-0 -47349-4 0  9993,2 56452  69.9999 157.6209 0003199 269.5313  90.5479 14.98322311 47533,6950.217,96.107,574.305,569.858,0.0
56452.0,STARLINK-5986,PAYLOAD,2024-03-21 05:26:38,14.98333831,0.0003502,69.9992,156.1062,273.435,86.6409,-7.3741e-05,-9.73e-06,0.0,0 STARLINK-5986,1 56452U 23064E   24081.22682932 -.00000973  00000-0 -73741-4 0  9993,2 56452  69.9992 156.1062 0003502 273.4350  86.6409 14.98333831 47987,6950.181,96.107,574.48,569.612,0.0
56452.0,STARLINK-5986,PAYLOAD,2024-03-21 13:27:17,14.98340455,0.0003143,69.9998,155.2642,267.1364,92.9435,5.2342e-05,5.32e-06,0.0,0 STARLINK-5986,1 56452U 23064E   24081.56062001  .00000532  00000-0  52342-4 0  9992,2 56452  69.9998 155.2642 0003143 267.1364  92.9435 14.98340455 48039,6950.161,96.106,574.21,569.841,0.0
56452.0,STARLINK-5986,PAYLOAD,2024-03-21 15:03:25,14.98343369,0.0003162,69.9997,155.0954,267.7188,92.3609,8.4637e-05,9.17e-06,0.0,0 STARLINK-5986,1 56452U 23064E   24081.62737688  .00000917  00000-0  84637-4 0  9998,2 56452  69.9997 155.0954 0003162 267.7188  92.3609 14.98343369 47687,6950.152,96.106,574.214,569.819,0.0
56452.0,STARLINK-5986,PAYLOAD,2024-03-22 11:53:11,14.98324959,0.0002426,70.0014,152.9092,254.0791,106.0101,0.00011813,1.317e-05,0.0,0 STARLINK-5986,1 56452U 23064E   24082.49526678  .00001317  00000-0  11813-3 0  9999,2 56452  70.0014 152.9092 0002426 254.0791 106.0101 14.98324959 48179,6950.208,96.107,573.76,570.387,0.0
56452.0,STARLINK-5986,PAYLOAD,2024-03-22 13:29:19,14.98325248,0.0002499,70.0014,152.741,258.9679,101.1199,0.00012135,1.355e-05,0.0,0 STARLINK-5986,1 56452U 23064E   24082.56202675  .00001355  00000-0  12135-3 0  9995,2 56452  70.0014 152.7410 0002499 258.9679 101.1199 14.98325248 47825,6950.208,96.107,573.809,570.336,0.0
56452.0,STARLINK-5986,PAYLOAD,2024-03-22 15:05:26,14.98343991,0.0002268,70.0013,152.5733,248.382,111.7097,-0.00019044,-2.365e-05,0.0,0 STARLINK-5986,1 56452U 23064E   24082.62878192 -.00002365  00000-0 -19044-3 0  9995,2 56452  70.0013 152.5733 0002268 248.3820 111.7097 14.98343991 48195,6950.15,96.106,573.591,570.438,0.0
56452.0,STARLINK-5986,PAYLOAD,2024-03-23 05:30:40,14.98324729,0.0002388,70.0022,151.0582,245.4093,114.6818,-4.5954e-05,-6.41e-06,0.0,0 STARLINK-5986,1 56452U 23064E   24083.22963220 -.00000641  00000-0 -45954-4 0  9994,2 56452  70.0022 151.0582 0002388 245.4093 114.6818 14.98324729 48285,6950.209,96.107,573.734,570.414,0.0
56452.0,STARLINK-5986,PAYLOAD,2024-03-23 15:07:28,14.98322446,0.0002591,70.0014,150.0476,250.1791,109.9089,-8.3246e-05,-1.086e-05,0.0,0 STARLINK-5986,1 56452U 23064E   24083.63019630 -.00001086  00000-0 -83246-4 0  9996,2 56452  70.0014 150.0476 0002591 250.1791 109.9089 14.98322446 47988,6950.216,96.107,573.882,570.28,0.0
56452.0,STARLINK-5986,PAYLOAD,2024-03-24 05:32:40,14.98333075,0.0002612,70.0011,148.5334,249.6471,110.4408,4.3438e-05,4.25e-06,0.0,0 STARLINK-5986,1 56452U 23064E   24084.23102587  .00000425  00000-0  43438-4 0  9990,2 56452  70.0011 148.5334 0002612 249.6471 110.4408 14.98333075 48435,6950.183,96.107,573.864,570.233,0.0
56452.0,STARLINK-5986,PAYLOAD,2024-03-24 13:33:20,14.98337172,0.0002541,70.0011,147.6918,249.1258,110.9629,9.2457e-05,1.011e-05,0.0,0 STARLINK-5986,1 56452U 23064E   24084.56482131  .00001011  00000-0  92457-4 0  9999,2 56452  70.0011 147.6918 0002541 249.1258 110.9629 14.98337172 48120,6950.171,96.107,573.802,570.27,0.0
56452.0,STARLINK-5986,PAYLOAD,2024-03-24 21:34:02,14.9832229,0.0001991,70.0006,146.8413,287.2146,72.8795,-1.8965e-05,-3.19e-06,0.0,0 STARLINK-5986,1 56452U 23064E   24084.89863729 -.00000319  00000-0 -18965-4 0  9995,2 56452  70.0006 146.8413 0001991 287.2146  72.8795 14.98322290 48532,6950.217,96.107,573.466,570.698,0.0
56452.0,STARLINK-5986,PAYLOAD,2024-03-25 13:35:22,14.98328625,0.0002827,69.9997,145.1644,262.1683,97.9156,0.0001047,1.156e-05,0.0,0 STARLINK-5986,1 56452U 23064E   24085.56622790  .00001156  00000-0  10470-3 0  9991,2 56452  69.9997 145.1644 0002827 262.1683  97.9156 14.98328625 48631,6950.197,96.107,574.027,570.097,0.0
56452.0,STARLINK-5986,PAYLOAD,2024-03-25 21:36:03,14.98324357,0.0002799,70.0004,144.3201,270.2951,89.7887,-4.2998e-05,-6.06e-06,0.0,0 STARLINK-5986,1 56452U 23064E   24085.90003559 -.00000606  00000-0 -42998-4 0  9997,2 56452  70.0004 144.3201 0002799 270.2951  89.7887 14.98324357 48323,6950.21,96.107,574.021,570.13,0.0
56452.0,STARLINK-5986,PAYLOAD,2024-03-26 05:36:43,14.98325017,0.0002605,70.0005,143.4805,267.2234,92.8627,-0.00020056,-2.485e-05,0.0,0 STARLINK-5986,1 56452U 23064E   24086.23384173 -.00002485  00000-0 -20056-3 0  9995,2 56452  70.0005 143.4805 0002605 267.2234  92.8627 14.98325017 48736,6950.208,96.107,573.884,570.263,0.0
56452.0,STARLINK-5986,PAYLOAD,2024-03-26 13:37:24,14.98320052,0.0002796,69.9997,142.6396,266.3771,93.7068,-0.00020023,-2.481e-05,0.0,0 STARLINK-5986,1 56452U 23064E   24086.56764618 -.00002481  00000-0 -20023-3 0  9997,2 56452  69.9997 142.6396 0002796 266.3771  93.7068 14.98320052 48425,6950.224,96.108,574.032,570.145,0.0
56452.0,STARLINK-5986,PAYLOAD,2024-03-26 21:38:04,14.98333291,0.0002871,69.9995,141.798,271.0118,89.0712,-0.00026781,-3.287e-05,0.0,0 STARLINK-5986,1 56452U 23064E   24086.90144083 -.00003287  00000-0 -26781-3 0  9995,2 56452  69.9995 141.7980 0002871 271.0118  89.0712 14.98333291 48472,6950.183,96.107,574.043,570.052,0.0
56452.0,STARLINK-5986,PAYLOAD,2024-03-27 05:38:44,14.98325624,0.000296,69.9989,140.956,267.7734,92.3086,5.3593e-05,5.46e-06,0.0,0 STARLINK-5986,1 56452U 23064E   24087.23523838  .00000546  00000-0  53593-4 0  9996,2 56452  69.9989 140.9560 0002960 267.7734  92.3086 14.98325624 48882,6950.206,96.107,574.129,570.014,0.0
56452.0,STARLINK-5986,PAYLOAD,2024-03-27 13:39:24,14.98330325,0.000301,69.9991,140.1146,268.9584,91.123,8.6737e-05,9.42e-06,0.0,0 STARLINK-5986,1 56452U 23064E   24087.56903519  .00000942  00000-0  86737-4 0  9996,2 56452  69.9991 140.1146 0003010 268.9584  91.1230 14.98330325 48578,6950.192,96.107,574.149,569.965,0.0
56452.0,STARLINK-5986,PAYLOAD,2024-03-28 05:40:44,14.98333912,0.0003074,69.9988,138.4314,270.1028,89.9779,0.00030002,3.489e-05,0.0,0 STARLINK-5986,1 56452U 23064E   24088.23662511  .00003489  00000-0  30002-3 0  9997,2 56452  69.9988 138.4314 0003074 270.1028  89.9779 14.98333912 49039,6950.181,96.107,574.182,569.909,0.0
56452.0,STARLINK-5986,PAYLOAD,2024-03-28 13:41:23,14.9834622,0.0003184,69.9993,137.5873,249.1644,110.9174,0.00040204,4.709e-05,0.0,0 STARLINK-5986,1 56452U 23064E   24088.57041098  .00004709  00000-0  40204-3 0  9996,2 56452  69.9993 137.5873 0003184 249.1644 110.9174 14.98346220 48722,6950.143,96.106,574.221,569.795,0.0
56452.0,STARLINK-5986,PAYLOAD,2024-03-28 20:05:51,14.984094,0.0004147,70.0005,136.9176,262.0199,98.049,0.00026741,3.106e-05,0.0,0 STARLINK-5986,1 56452U 23064E   24088.83740278  .00003106  00000-0  26741-3 0  9991,2 56452  70.0005 136.9176 0004147 262.0199  98.0490 14.98409400 49129,6949.947,96.102,574.695,568.93,0.0
56452.0,STARLINK-5986,PAYLOAD,2024-03-29 04:06:37,14.98323574,0.0003133,69.999,136.075,270.1696,89.9104,-0.00017927,-2.231e-05,0.0,0 STARLINK-5986,1 56452U 23064E   24089.17126620 -.00002231  00000-0 -17927-3 0  9994,2 56452  69.9990 136.0750 0003133 270.1696  89.9104 14.98323574 49177,6950.213,96.107,574.255,569.9,0.0
56452.0,STARLINK-5986,PAYLOAD,2024-03-29 12:07:17,14.98322596,0.0002895,69.9991,135.2329,266.7672,93.3156,-0.00019097,-2.37e-05,0.0,0 STARLINK-5986,1 56452U 23064E   24089.50506686 -.00002370  00000-0 -19097-3 0  9999,2 56452  69.9991 135.2329 0002895 266.7672  93.3156 14.98322596 48864,6950.216,96.107,574.093,570.069,0.0
56452.0,STARLINK-5986,PAYLOAD,2024-03-29 20:07:57,14.98340795,0.0003095,69.9991,134.3905,273.6683,86.4122,-0.00047684,-5.78e-05,0.0,0 STARLINK-5986,1 56452U 23064E   24089.83886118 -.00005780  00000-0 -47684-3 0  9997,2 56452  69.9991 134.3905 0003095 273.6683  86.4122 14.98340795 49279,6950.16,96.106,574.176,569.873,0.0
56452.0,STARLINK-5986,PAYLOAD,2024-03-30 04:08:38,14.98327611,0.0003024,69.9988,133.5491,270.2925,89.7888,-0.0002737,-3.357e-05,0.0,0 STARLINK-5986,1 56452U 23064E   24090.17266496 -.00003357  00000-0 -27370-3 0  9995,2 56452  69.9988 133.5491 0003024 270.2925  89.7888 14.98327611 49323,6950.2,96.107,574.167,569.964,0.0
56452.0,STARLINK-5986,PAYLOAD,2024-03-30 12:09:18,14.98328859,0.0003045,69.9987,132.7084,269.7895,90.2916,-0.00025957,-3.189e-05,0.0,0 STARLINK-5986,1 56452U 23064E   24090.50646351 -.00003189  00000-0 -25957-3 0  9996,2 56452  69.9987 132.7084 0003045 269.7895  90.2916 14.98328859 49013,6950.196,96.107,574.178,569.945,0.0
56452.0,STARLINK-5986,PAYLOAD,2024-03-30 20:09:58,14.98331332,0.0003105,69.9986,131.8666,265.1797,94.9007,-0.00026254,-3.224e-05,0.0,0 STARLINK-5986,1 56452U 23064E   24090.84026130 -.00003224  00000-0 -26254-3 0  9991,2 56452  69.9986 131.8666 0003105 265.1797  94.9007 14.98331332 49063,6950.189,96.107,574.212,569.896,0.0
56452.0,STARLINK-5986,PAYLOAD,2024-03-31 05:46:46,14.98324184,0.0003786,69.9985,130.8565,262.5069,97.566,-0.00011746,-1.494e-05,0.0,0 STARLINK-5986,1 56452U 23064E   24091.24081694 -.00001494  00000-0 -11746-3 0  9999,2 56452  69.9985 130.8565 0003786 262.5069  97.5660 14.98324184 49484,6950.211,96.107,574.707,569.445,0.0
